start=new Date('2022-03-09T00:00:00.000Z').valueOf();
sats=[{"EPHEMERIS_TYPE":"0","COUNTRY_CODE":"US","SEMIMAJOR_AXIS":"6752.560","EPOCH":"2022-03-08T22:00:00.999936","LAUNCH_DATE":"2022-02-03","OBJECT_ID":"2022-010F","ELEMENT_SET_NO":"999","REV_AT_EPOCH":"369","PERIAPSIS":"373.554","DECAY_DATE":null,"APOAPSIS":"375.297","OBJECT_NAME":"STARLINK-3181","FILE":"3351330","INCLINATION":"53.2176","TIME_SYSTEM":"UTC","RCS_SIZE":"LARGE","RA_OF_ASC_NODE":"8.4050","TLE_LINE1":"1 51461U 22010F   22067.91667824 -.00717609  00000-0 -79497-2 0  9992","REF_FRAME":"TEME","OBJECT_TYPE":"PAYLOAD","SITE":"AFETR","CLASSIFICATION_TYPE":"U","BSTAR":"-0.00794970000000","CENTER_NAME":"EARTH","TLE_LINE2":"2 51461  53.2176   8.4050 0001291  57.3255 236.1594 15.64588215  3693","MEAN_MOTION_DOT":"-0.00717609","NORAD_CAT_ID":"51461","MEAN_MOTION_DDOT":"0.0000000000000","ECCENTRICITY":"0.00012910","GP_ID":"198277254","MEAN_MOTION":"15.64588215","MEAN_ELEMENT_THEORY":"SGP4","ARG_OF_PERICENTER":"57.3255","MEAN_ANOMALY":"236.1594","PERIOD":"92.037"},{"EPHEMERIS_TYPE":"0","COUNTRY_CODE":"US","SEMIMAJOR_AXIS":"6752.192","EPOCH":"2022-03-08T22:00:00.999936","LAUNCH_DATE":"2022-02-03","OBJECT_ID":"2022-010G","ELEMENT_SET_NO":"999","REV_AT_EPOCH":"369","PERIAPSIS":"373.234","DECAY_DATE":null,"APOAPSIS":"374.880","OBJECT_NAME":"STARLINK-3166","FILE":"3351330","INCLINATION":"53.2176","TIME_SYSTEM":"UTC","RCS_SIZE":"MEDIUM","RA_OF_ASC_NODE":"8.4037","TLE_LINE1":"1 51462U 22010G   22067.91667824 -.00717651  00000-0 -79098-2 0  9997","REF_FRAME":"TEME","OBJECT_TYPE":"PAYLOAD","SITE":"AFETR","CLASSIFICATION_TYPE":"U","BSTAR":"-0.00790980000000","CENTER_NAME":"EARTH","TLE_LINE2":"2 51462  53.2176   8.4037 0001219  63.6843 233.0062 15.64716104  3698","NORAD_CAT_ID":"51462","MEAN_MOTION_DOT":"-0.00717651","MEAN_MOTION_DDOT":"0.0000000000000","ECCENTRICITY":"0.00012190","GP_ID":"198276603","MEAN_MOTION":"15.64716104","MEAN_ELEMENT_THEORY":"SGP4","ARG_OF_PERICENTER":"63.6843","MEAN_ANOMALY":"233.0062","PERIOD":"92.029"},{"REV_AT_EPOCH":"371","PERIAPSIS":"372.161","OBJECT_NAME":"STARLINK-3419","DECAY_DATE":null,"APOAPSIS":"373.943","COUNTRY_CODE":"US","EPHEMERIS_TYPE":"0","ELEMENT_SET_NO":"999","OBJECT_ID":"2022-010H","LAUNCH_DATE":"2022-02-03","SEMIMAJOR_AXIS":"6751.187","EPOCH":"2022-03-08T22:00:00.999936","MEAN_MOTION_DDOT":"0.0000000000000","CENTER_NAME":"EARTH","TLE_LINE2":"2 51463  53.2176   8.2571 0001320  46.0555 344.6625 15.65065595  3717","MEAN_MOTION_DOT":"-0.00718434","NORAD_CAT_ID":"51463","CLASSIFICATION_TYPE":"U","BSTAR":"-0.00780880000000","MEAN_ANOMALY":"344.6625","PERIOD":"92.009","MEAN_ELEMENT_THEORY":"SGP4","ARG_OF_PERICENTER":"46.0555","ECCENTRICITY":"0.00013200","GP_ID":"198276712","MEAN_MOTION":"15.65065595","TIME_SYSTEM":"UTC","RCS_SIZE":"LARGE","RA_OF_ASC_NODE":"8.2571","FILE":"3351330","INCLINATION":"53.2176","OBJECT_TYPE":"PAYLOAD","SITE":"AFETR","REF_FRAME":"TEME","TLE_LINE1":"1 51463U 22010H   22067.91667824 -.00718434  00000-0 -78088-2 0  9996"},{"RA_OF_ASC_NODE":"8.4013","RCS_SIZE":"LARGE","TIME_SYSTEM":"UTC","INCLINATION":"53.2176","FILE":"3351330","OBJECT_TYPE":"PAYLOAD","SITE":"AFETR","REF_FRAME":"TEME","TLE_LINE1":"1 51464U 22010J   22067.91667824 -.00717955  00000-0 -78326-2 0  9999","MEAN_MOTION_DDOT":"0.0000000000000","NORAD_CAT_ID":"51464","MEAN_MOTION_DOT":"-0.00717955","TLE_LINE2":"2 51464  53.2176   8.4013 0001274  57.4790 245.5072 15.64971991  3693","CENTER_NAME":"EARTH","CLASSIFICATION_TYPE":"U","BSTAR":"-0.00783260000000","MEAN_ANOMALY":"245.5072","PERIOD":"92.014","ARG_OF_PERICENTER":"57.4790","MEAN_ELEMENT_THEORY":"SGP4","MEAN_MOTION":"15.64971991","GP_ID":"198276495","ECCENTRICITY":"0.00012740","COUNTRY_CODE":"US","EPHEMERIS_TYPE":"0","ELEMENT_SET_NO":"999","OBJECT_ID":"2022-010J","LAUNCH_DATE":"2022-02-03","EPOCH":"2022-03-08T22:00:00.999936","SEMIMAJOR_AXIS":"6751.456","PERIAPSIS":"372.461","REV_AT_EPOCH":"369","OBJECT_NAME":"STARLINK-3189","APOAPSIS":"374.181","DECAY_DATE":null},{"FILE":"3351330","INCLINATION":"53.2176","RCS_SIZE":"LARGE","TIME_SYSTEM":"UTC","RA_OF_ASC_NODE":"8.4000","TLE_LINE1":"1 51465U 22010K   22067.91667824 -.00718397  00000-0 -77971-2 0  9996","REF_FRAME":"TEME","OBJECT_TYPE":"PAYLOAD","SITE":"AFETR","CLASSIFICATION_TYPE":"U","BSTAR":"-0.00779710000000","TLE_LINE2":"2 51465  53.2176   8.4000 0001509  41.4819 264.5944 15.65100084  3716","CENTER_NAME":"EARTH","NORAD_CAT_ID":"51465","MEAN_MOTION_DOT":"-0.00718397","MEAN_MOTION_DDOT":"0.0000000000000","ECCENTRICITY":"0.00015090","GP_ID":"198277146","MEAN_MOTION":"15.65100084","MEAN_ELEMENT_THEORY":"SGP4","ARG_OF_PERICENTER":"41.4819","MEAN_ANOMALY":"264.5944","PERIOD":"92.007","EPHEMERIS_TYPE":"0","COUNTRY_CODE":"US","SEMIMAJOR_AXIS":"6751.088","EPOCH":"2022-03-08T22:00:00.999936","LAUNCH_DATE":"2022-02-03","OBJECT_ID":"2022-010K","ELEMENT_SET_NO":"999","REV_AT_EPOCH":"371","PERIAPSIS":"371.934","DECAY_DATE":null,"APOAPSIS":"373.972","OBJECT_NAME":"STARLINK-3401"},{"COUNTRY_CODE":"US","EPHEMERIS_TYPE":"0","ELEMENT_SET_NO":"999","OBJECT_ID":"2022-010M","LAUNCH_DATE":"2022-02-03","EPOCH":"2022-03-08T22:00:00.999936","SEMIMAJOR_AXIS":"6757.661","REV_AT_EPOCH":"369","PERIAPSIS":"378.548","OBJECT_NAME":"STARLINK-3178","APOAPSIS":"380.504","DECAY_DATE":null,"RA_OF_ASC_NODE":"8.2525","TIME_SYSTEM":"UTC","RCS_SIZE":"LARGE","INCLINATION":"53.2175","FILE":"3351330","SITE":"AFETR","OBJECT_TYPE":"PAYLOAD","REF_FRAME":"TEME","TLE_LINE1":"1 51467U 22010M   22067.91667824 -.00718199  00000-0 -85358-2 0  9996","MEAN_MOTION_DDOT":"0.0000000000000","MEAN_MOTION_DOT":"-0.00718199","NORAD_CAT_ID":"51467","TLE_LINE2":"2 51467  53.2175   8.2525 0001447  40.1475 302.1495 15.62817127  3699","CENTER_NAME":"EARTH","CLASSIFICATION_TYPE":"U","BSTAR":"-0.00853580000000","MEAN_ANOMALY":"302.1495","PERIOD":"92.141","ARG_OF_PERICENTER":"40.1475","MEAN_ELEMENT_THEORY":"SGP4","MEAN_MOTION":"15.62817127","ECCENTRICITY":"0.00014470","GP_ID":"198276929"},{"FILE":"3351330","INCLINATION":"53.2176","RCS_SIZE":"MEDIUM","TIME_SYSTEM":"UTC","RA_OF_ASC_NODE":"8.2601","REF_FRAME":"TEME","TLE_LINE1":"1 51468U 22010N   22067.91667824 -.00718449  00000-0 -78897-2 0  9995","SITE":"AFETR","OBJECT_TYPE":"PAYLOAD","CENTER_NAME":"EARTH","TLE_LINE2":"2 51468  53.2176   8.2601 0001214  52.8745 331.6035 15.64809930  3690","NORAD_CAT_ID":"51468","MEAN_MOTION_DOT":"-0.00718449","BSTAR":"-0.00788970000000","CLASSIFICATION_TYPE":"U","MEAN_MOTION_DDOT":"0.0000000000000","MEAN_ELEMENT_THEORY":"SGP4","ARG_OF_PERICENTER":"52.8745","GP_ID":"198277038","ECCENTRICITY":"0.00012140","MEAN_MOTION":"15.64809930","MEAN_ANOMALY":"331.6035","PERIOD":"92.024","EPHEMERIS_TYPE":"0","COUNTRY_CODE":"US","LAUNCH_DATE":"2022-02-03","SEMIMAJOR_AXIS":"6751.922","EPOCH":"2022-03-08T22:00:00.999936","ELEMENT_SET_NO":"999","OBJECT_ID":"2022-010N","PERIAPSIS":"372.968","REV_AT_EPOCH":"369","DECAY_DATE":null,"APOAPSIS":"374.607","OBJECT_NAME":"STARLINK-3174"},{"TIME_SYSTEM":"UTC","RCS_SIZE":"LARGE","RA_OF_ASC_NODE":"8.4025","FILE":"3351330","INCLINATION":"53.2176","OBJECT_TYPE":"PAYLOAD","SITE":"AFETR","REF_FRAME":"TEME","TLE_LINE1":"1 51469U 22010P   22067.91667824 -.00717852  00000-0 -78717-2 0  9994","MEAN_MOTION_DDOT":"0.0000000000000","TLE_LINE2":"2 51469  53.2176   8.4025 0001248  59.5952 240.2624 15.64844078  3695","CENTER_NAME":"EARTH","MEAN_MOTION_DOT":"-0.00717852","NORAD_CAT_ID":"51469","CLASSIFICATION_TYPE":"U","BSTAR":"-0.00787170000000","MEAN_ANOMALY":"240.2624","PERIOD":"92.022","MEAN_ELEMENT_THEORY":"SGP4","ARG_OF_PERICENTER":"59.5952","ECCENTRICITY":"0.00012480","GP_ID":"198276821","MEAN_MOTION":"15.64844078","COUNTRY_CODE":"US","EPHEMERIS_TYPE":"0","ELEMENT_SET_NO":"999","OBJECT_ID":"2022-010P","LAUNCH_DATE":"2022-02-03","SEMIMAJOR_AXIS":"6751.824","EPOCH":"2022-03-08T22:00:00.999936","PERIAPSIS":"372.847","REV_AT_EPOCH":"369","OBJECT_NAME":"STARLINK-3182","DECAY_DATE":null,"APOAPSIS":"374.532"},{"FILE":"3351303","INCLINATION":"53.2139","TIME_SYSTEM":"UTC","RCS_SIZE":"MEDIUM","RA_OF_ASC_NODE":"8.6243","REF_FRAME":"TEME","TLE_LINE1":"1 51471U 22010R   22067.53044025  .00055192  00000-0  39517-3 0  9993","OBJECT_TYPE":"PAYLOAD","SITE":"AFETR","TLE_LINE2":"2 51471  53.2139   8.6243 0001370  46.3758 313.7375 15.73194496  6497","CENTER_NAME":"EARTH","NORAD_CAT_ID":"51471","MEAN_MOTION_DOT":"0.00055192","BSTAR":"0.00039517000000","CLASSIFICATION_TYPE":"U","MEAN_MOTION_DDOT":"0.0000000000000","MEAN_ELEMENT_THEORY":"SGP4","ARG_OF_PERICENTER":"46.3758","ECCENTRICITY":"0.00013700","GP_ID":"198251313","MEAN_MOTION":"15.73194496","MEAN_ANOMALY":"313.7375","PERIOD":"91.534","EPHEMERIS_TYPE":"0","COUNTRY_CODE":"US","LAUNCH_DATE":"2022-02-03","SEMIMAJOR_AXIS":"6727.911","EPOCH":"2022-03-08T12:43:50.037600","ELEMENT_SET_NO":"999","OBJECT_ID":"2022-010R","REV_AT_EPOCH":"649","PERIAPSIS":"348.854","DECAY_DATE":null,"APOAPSIS":"350.698","OBJECT_NAME":"STARLINK-3165"},{"PERIOD":"92.016","MEAN_ANOMALY":"338.4445","MEAN_ELEMENT_THEORY":"SGP4","ARG_OF_PERICENTER":"49.1727","ECCENTRICITY":"0.00012630","GP_ID":"198276604","MEAN_MOTION":"15.64937746","MEAN_MOTION_DDOT":"0.0000000000000","CENTER_NAME":"EARTH","TLE_LINE2":"2 51472  53.2176   8.2586 0001263  49.1727 338.4445 15.64937746  3710","NORAD_CAT_ID":"51472","MEAN_MOTION_DOT":"-0.00718426","CLASSIFICATION_TYPE":"U","BSTAR":"-0.00784900000000","OBJECT_TYPE":"PAYLOAD","SITE":"AFETR","REF_FRAME":"TEME","TLE_LINE1":"1 51472U 22010S   22067.91667824 -.00718426  00000-0 -78490-2 0  9994","RCS_SIZE":"LARGE","TIME_SYSTEM":"UTC","RA_OF_ASC_NODE":"8.2586","FILE":"3351330","INCLINATION":"53.2176","OBJECT_NAME":"STARLINK-3415","DECAY_DATE":null,"APOAPSIS":"374.273","REV_AT_EPOCH":"371","PERIAPSIS":"372.567","ELEMENT_SET_NO":"999","OBJECT_ID":"2022-010S","LAUNCH_DATE":"2022-02-03","SEMIMAJOR_AXIS":"6751.555","EPOCH":"2022-03-08T22:00:00.999936","COUNTRY_CODE":"US","EPHEMERIS_TYPE":"0"}];
